CCSDS_OMM_VERS = 2.0
CREATION_DATE  = 
ORIGINATOR     = 

OBJECT_NAME    = SL-16 R/B
OBJECT_ID      = 2000-006B
CENTER_NAME    = EARTH
REF_FRAME      = TEME
TIME_SYSTEM    = UTC
MEAN_ELEMENT_THEORY = SGP/SGP4

EPOCH          = 2026-02-11T07:20:54.662208
MEAN_MOTION    = 14.15820240
ECCENTRICITY   = .00182831
INCLINATION    = 71.0031
RA_OF_ASC_NODE = 153.3117
ARG_OF_PERICENTER = 227.4473
MEAN_ANOMALY   = 132.5107

EPHEMERIS_TYPE = 0
CLASSIFICATION_TYPE = U
NORAD_CAT_ID   = 26070
ELEMENT_SET_NO = 999
REV_AT_EPOCH   = 34482
BSTAR          = -.7160558E-4
MEAN_MOTION_DOT = -.189E-5
MEAN_MOTION_DDOT = 0

CCSDS_OMM_VERS = 2.0
CREATION_DATE  = 
ORIGINATOR     = 

OBJECT_NAME    = TITAN 4B R/B
OBJECT_ID      = 2000-047B
CENTER_NAME    = EARTH
REF_FRAME      = TEME
TIME_SYSTEM    = UTC
MEAN_ELEMENT_THEORY = SGP/SGP4

EPOCH          = 2026-02-11T06:10:38.663616
MEAN_MOTION    = 15.09339238
ECCENTRICITY   = .00370472
INCLINATION    = 67.9889
RA_OF_ASC_NODE = 114.8251
ARG_OF_PERICENTER = 67.8464
MEAN_ANOMALY   = 292.6611

EPHEMERIS_TYPE = 0
CLASSIFICATION_TYPE = U
NORAD_CAT_ID   = 26474
ELEMENT_SET_NO = 999
REV_AT_EPOCH   = 38892
BSTAR          = .22848282E-3
MEAN_MOTION_DOT = .3577E-4
MEAN_MOTION_DDOT = 0

CCSDS_OMM_VERS = 2.0
CREATION_DATE  = 
ORIGINATOR     = 

OBJECT_NAME    = ENVISAT
OBJECT_ID      = 2002-009A
CENTER_NAME    = EARTH
REF_FRAME      = TEME
TIME_SYSTEM    = UTC
MEAN_ELEMENT_THEORY = SGP/SGP4

EPOCH          = 2026-02-10T20:11:00.384288
MEAN_MOTION    = 14.39026748
ECCENTRICITY   = .00013272
INCLINATION    = 98.3681
RA_OF_ASC_NODE = 356.0855
ARG_OF_PERICENTER = 89.7776
MEAN_ANOMALY   = 323.9396

EPHEMERIS_TYPE = 0
CLASSIFICATION_TYPE = U
NORAD_CAT_ID   = 27386
ELEMENT_SET_NO = 999
REV_AT_EPOCH   = 25531
BSTAR          = .62163149E-4
MEAN_MOTION_DOT = .149E-5
MEAN_MOTION_DDOT = 0

CCSDS_OMM_VERS = 2.0
CREATION_DATE  = 
ORIGINATOR     = 

OBJECT_NAME    = IDEFIX & ARIANE 42P R/B
OBJECT_ID      = 2002-021B
CENTER_NAME    = EARTH
REF_FRAME      = TEME
TIME_SYSTEM    = UTC
MEAN_ELEMENT_THEORY = SGP/SGP4

EPOCH          = 2026-02-11T06:37:00.593184
MEAN_MOTION    = 14.31007127
ECCENTRICITY   = .00106424
INCLINATION    = 98.5842
RA_OF_ASC_NODE = 341.2022
ARG_OF_PERICENTER = 265.6836
MEAN_ANOMALY   = 94.3131

EPHEMERIS_TYPE = 0
CLASSIFICATION_TYPE = U
NORAD_CAT_ID   = 27422
ELEMENT_SET_NO = 999
REV_AT_EPOCH   = 24024
BSTAR          = .14712847E-3
MEAN_MOTION_DOT = .343E-5
MEAN_MOTION_DDOT = 0

CCSDS_OMM_VERS = 2.0
CREATION_DATE  = 
ORIGINATOR     = 

OBJECT_NAME    = AQUA
OBJECT_ID      = 2002-022A
CENTER_NAME    = EARTH
REF_FRAME      = TEME
TIME_SYSTEM    = UTC
MEAN_ELEMENT_THEORY = SGP/SGP4

EPOCH          = 2026-02-11T06:35:18.527136
MEAN_MOTION    = 14.61911030
ECCENTRICITY   = .00014247
INCLINATION    = 98.4125
RA_OF_ASC_NODE = 9.1686
ARG_OF_PERICENTER = 51.4012
MEAN_ANOMALY   = 56.0339

EPHEMERIS_TYPE = 0
CLASSIFICATION_TYPE = U
NORAD_CAT_ID   = 27424
ELEMENT_SET_NO = 999
REV_AT_EPOCH   = 26487
BSTAR          = .2573523E-3
MEAN_MOTION_DOT = .1239E-4
MEAN_MOTION_DDOT = 0

CCSDS_OMM_VERS = 2.0
CREATION_DATE  = 
ORIGINATOR     = 

OBJECT_NAME    = CZ-4B R/B
OBJECT_ID      = 2002-024C
CENTER_NAME    = EARTH
REF_FRAME      = TEME
TIME_SYSTEM    = UTC
MEAN_ELEMENT_THEORY = SGP/SGP4

EPOCH          = 2026-02-11T04:34:40.094112
MEAN_MOTION    = 14.14542798
ECCENTRICITY   = .00511624
INCLINATION    = 98.8899
RA_OF_ASC_NODE = 95.7233
ARG_OF_PERICENTER = 98.2576
MEAN_ANOMALY   = 306.7741

EPHEMERIS_TYPE = 0
CLASSIFICATION_TYPE = U
NORAD_CAT_ID   = 27432
ELEMENT_SET_NO = 999
REV_AT_EPOCH   = 22549
BSTAR          = .49706844E-4
MEAN_MOTION_DOT = .53E-6
MEAN_MOTION_DDOT = 0

CCSDS_OMM_VERS = 2.0
CREATION_DATE  = 
ORIGINATOR     = 

OBJECT_NAME    = MIDORI II (ADEOS-II)
OBJECT_ID      = 2002-056A
CENTER_NAME    = EARTH
REF_FRAME      = TEME
TIME_SYSTEM    = UTC
MEAN_ELEMENT_THEORY = SGP/SGP4

EPOCH          = 2026-02-10T20:26:24.536832
MEAN_MOTION    = 14.29264712
ECCENTRICITY   = .00021635
INCLINATION    = 98.7720
RA_OF_ASC_NODE = 0.1525
ARG_OF_PERICENTER = 80.3780
MEAN_ANOMALY   = 279.7646

EPHEMERIS_TYPE = 0
CLASSIFICATION_TYPE = U
NORAD_CAT_ID   = 27597
ELEMENT_SET_NO = 999
REV_AT_EPOCH   = 20646
BSTAR          = .16440784E-3
MEAN_MOTION_DOT = .373E-5
MEAN_MOTION_DDOT = 0

CCSDS_OMM_VERS = 2.0
CREATION_DATE  = 
ORIGINATOR     = 

OBJECT_NAME    = H-2A R/B
OBJECT_ID      = 2002-056E
CENTER_NAME    = EARTH
REF_FRAME      = TEME
TIME_SYSTEM    = UTC
MEAN_ELEMENT_THEORY = SGP/SGP4

EPOCH          = 2026-02-10T23:24:04.834944
MEAN_MOTION    = 14.33741767
ECCENTRICITY   = .00690998
INCLINATION    = 98.3151
RA_OF_ASC_NODE = 3.3657
ARG_OF_PERICENTER = 240.8006
MEAN_ANOMALY   = 161.2384

EPHEMERIS_TYPE = 0
CLASSIFICATION_TYPE = U
NORAD_CAT_ID   = 27601
ELEMENT_SET_NO = 999
REV_AT_EPOCH   = 21028
BSTAR          = .13610887E-3
MEAN_MOTION_DOT = .346E-5
MEAN_MOTION_DDOT = 0

CCSDS_OMM_VERS = 2.0
CREATION_DATE  = 
ORIGINATOR     = 

OBJECT_NAME    = CZ-4B R/B
OBJECT_ID      = 2003-049C
CENTER_NAME    = EARTH
REF_FRAME      = TEME
TIME_SYSTEM    = UTC
MEAN_ELEMENT_THEORY = SGP/SGP4

EPOCH          = 2026-02-10T21:47:07.015776
MEAN_MOTION    = 14.54990791
ECCENTRICITY   = .00473552
INCLINATION    = 98.6850
RA_OF_ASC_NODE = 35.7683
ARG_OF_PERICENTER = 314.5123
MEAN_ANOMALY   = 45.2207

EPHEMERIS_TYPE = 0
CLASSIFICATION_TYPE = U
NORAD_CAT_ID   = 28059
ELEMENT_SET_NO = 999
REV_AT_EPOCH   = 18270
BSTAR          = .13826665E-3
MEAN_MOTION_DOT = .552E-5
MEAN_MOTION_DDOT = 0

CCSDS_OMM_VERS = 2.0
CREATION_DATE  = 
ORIGINATOR     = 

OBJECT_NAME    = CZ-2C R/B
OBJECT_ID      = 2004-012C
CENTER_NAME    = EARTH
REF_FRAME      = TEME
TIME_SYSTEM    = UTC
MEAN_ELEMENT_THEORY = SGP/SGP4

EPOCH          = 2026-02-11T02:27:15.498144
MEAN_MOTION    = 15.61459159
ECCENTRICITY   = .00156679
INCLINATION    = 97.7306
RA_OF_ASC_NODE = 104.9338
ARG_OF_PERICENTER = 52.0632
MEAN_ANOMALY   = 308.2037

EPHEMERIS_TYPE = 0
CLASSIFICATION_TYPE = U
NORAD_CAT_ID   = 28222
ELEMENT_SET_NO = 999
REV_AT_EPOCH   = 20012
BSTAR          = .56014631E-3
MEAN_MOTION_DOT = .48206E-3
MEAN_MOTION_DDOT = 0

CCSDS_OMM_VERS = 2.0
CREATION_DATE  = 
ORIGINATOR     = 

OBJECT_NAME    = SL-16 R/B
OBJECT_ID      = 2004-021B
CENTER_NAME    = EARTH
REF_FRAME      = TEME
TIME_SYSTEM    = UTC
MEAN_ELEMENT_THEORY = SGP/SGP4

EPOCH          = 2026-02-11T01:56:57.663744
MEAN_MOTION    = 14.14590917
ECCENTRICITY   = .00030366
INCLINATION    = 70.9995
RA_OF_ASC_NODE = 288.3356
ARG_OF_PERICENTER = 76.1222
MEAN_ANOMALY   = 284.0238

EPHEMERIS_TYPE = 0
CLASSIFICATION_TYPE = U
NORAD_CAT_ID   = 28353
ELEMENT_SET_NO = 999
REV_AT_EPOCH   = 11907
BSTAR          = .13390768E-3
MEAN_MOTION_DOT = .21E-5
MEAN_MOTION_DDOT = 0

CCSDS_OMM_VERS = 2.0
CREATION_DATE  = 
ORIGINATOR     = 

OBJECT_NAME    = CZ-4B R/B
OBJECT_ID      = 2004-035C
CENTER_NAME    = EARTH
REF_FRAME      = TEME
TIME_SYSTEM    = UTC
MEAN_ELEMENT_THEORY = SGP/SGP4

EPOCH          = 2026-02-11T01:46:05.089728
MEAN_MOTION    = 15.28566925
ECCENTRICITY   = .00340093
INCLINATION    = 97.3549
RA_OF_ASC_NODE = 76.6402
ARG_OF_PERICENTER = 64.5895
MEAN_ANOMALY   = 295.8858

EPHEMERIS_TYPE = 0
CLASSIFICATION_TYPE = U
NORAD_CAT_ID   = 28415
ELEMENT_SET_NO = 999
REV_AT_EPOCH   = 17584
BSTAR          = .29425305E-3
MEAN_MOTION_DOT = .8245E-4
MEAN_MOTION_DDOT = 0

CCSDS_OMM_VERS = 2.0
CREATION_DATE  = 
ORIGINATOR     = 

OBJECT_NAME    = CZ-2C R/B
OBJECT_ID      = 2004-046B
CENTER_NAME    = EARTH
REF_FRAME      = TEME
TIME_SYSTEM    = UTC
MEAN_ELEMENT_THEORY = SGP/SGP4

EPOCH          = 2026-02-11T04:34:54.846048
MEAN_MOTION    = 14.26982950
ECCENTRICITY   = .01383739
INCLINATION    = 98.1993
RA_OF_ASC_NODE = 318.8209
ARG_OF_PERICENTER = 232.9814
MEAN_ANOMALY   = 125.8642

EPHEMERIS_TYPE = 0
CLASSIFICATION_TYPE = U
NORAD_CAT_ID   = 28480
ELEMENT_SET_NO = 999
REV_AT_EPOCH   = 10472
BSTAR          = .71576151E-4
MEAN_MOTION_DOT = .151E-5
MEAN_MOTION_DDOT = 0

CCSDS_OMM_VERS = 2.0
CREATION_DATE  = 
ORIGINATOR     = 

OBJECT_NAME    = ARIANE 5 R/B
OBJECT_ID      = 2004-049H
CENTER_NAME    = EARTH
REF_FRAME      = TEME
TIME_SYSTEM    = UTC
MEAN_ELEMENT_THEORY = SGP/SGP4

EPOCH          = 2026-02-10T21:17:11.695488
MEAN_MOTION    = 14.85211467
ECCENTRICITY   = .00854796
INCLINATION    = 98.2584
RA_OF_ASC_NODE = 209.3494
ARG_OF_PERICENTER = 78.1990
MEAN_ANOMALY   = 282.8796

EPHEMERIS_TYPE = 0
CLASSIFICATION_TYPE = U
NORAD_CAT_ID   = 28499
ELEMENT_SET_NO = 999
REV_AT_EPOCH   = 14181
BSTAR          = .12425165E-3
MEAN_MOTION_DOT = .1073E-4
MEAN_MOTION_DDOT = 0

CCSDS_OMM_VERS = 2.0
CREATION_DATE  = 
ORIGINATOR     = 

OBJECT_NAME    = CZ-2D R/B
OBJECT_ID      = 2005-024B
CENTER_NAME    = EARTH
REF_FRAME      = TEME
TIME_SYSTEM    = UTC
MEAN_ELEMENT_THEORY = SGP/SGP4

EPOCH          = 2026-02-11T00:08:49.422048
MEAN_MOTION    = 15.57790335
ECCENTRICITY   = .00075576
INCLINATION    = 97.3620
RA_OF_ASC_NODE = 56.2241
ARG_OF_PERICENTER = 110.3571
MEAN_ANOMALY   = 249.8497

EPHEMERIS_TYPE = 0
CLASSIFICATION_TYPE = U
NORAD_CAT_ID   = 28738
ELEMENT_SET_NO = 999
REV_AT_EPOCH   = 13562
BSTAR          = .51862801E-3
MEAN_MOTION_DOT = .38609E-3
MEAN_MOTION_DDOT = 0

